{
    "links": {
        "self": "http://www.neowsapp.com/rest/v1/neo/3662876?api_key=iIulBulltgU6a56xZRHN4H3l9WmuAYTsLGpBGhQ2"
    },
    "id": "3662876",
    "neo_reference_id": "3662876",
    "name": "(2014 DX110)",
    "designation": "2014 DX110",
    "nasa_jpl_url": "http://ssd.jpl.nasa.gov/sbdb.cgi?sstr=3662876",
    "absolute_magnitude_h": 25.7,
    "estimated_diameter": {
        "kilometers": {
            "estimated_diameter_min": 0.0192555078,
            "estimated_diameter_max": 0.0430566244
        },
        "meters": {
            "estimated_diameter_min": 19.2555078188,
            "estimated_diameter_max": 43.0566244241
        },
        "miles": {
            "estimated_diameter_min": 0.0119648141,
            "estimated_diameter_max": 0.0267541378
        },
        "feet": {
            "estimated_diameter_min": 63.1742402722,
            "estimated_diameter_max": 141.2618956756
        }
    },
    "is_potentially_hazardous_asteroid": false,
    "close_approach_data": [
        {
            "close_approach_date": "2014-03-05",
            "close_approach_date_full": "2014-Mar-05 21:00",
            "epoch_date_close_approach": 1394053200000,
            "relative_velocity": {
                "kilometers_per_second": "14.8420858028",
                "kilometers_per_hour": "53431.508890166",
                "miles_per_hour": "33200.2617323368"
            },
            "miss_distance": {
                "astronomical": "0.0023283677",
                "lunar": "0.9057350353",
                "kilometers": "348318.848496799",
                "miles": "216435.2962178662"
            },
            "orbiting_body": "Earth"
        },
        {
            "close_approach_date": "2014-03-05",
            "close_approach_date_full": "2014-Mar-05 22:22",
            "epoch_date_close_approach": 1394058120000,
            "relative_velocity": {
                "kilometers_per_second": "15.8140514627",
                "kilometers_per_hour": "56930.5852656808",
                "miles_per_hour": "35374.4517168892"
            },
            "miss_distance": {
                "astronomical": "0.0024997025",
                "lunar": "0.9723842725",
                "kilometers": "373950.169633675",
                "miles": "232361.860647715"
            },
            "orbiting_body": "Moon"
        }
    ],
    "orbital_data": {
        "orbit_id": "8",
        "orbit_determination_date": "2017-04-06 08:42:14",
        "first_observation_date": "2014-02-28",
        "last_observation_date": "2014-03-05",
        "data_arc_in_days": 5,
        "observations_used": 62,
        "orbit_uncertainty": "7",
        "minimum_orbit_intersection": ".00185365",
        "jupiter_tisserand_invariant": "3.376",
        "epoch_osculation": "2459000.5",
        "eccentricity": ".6241867490257645",
        "semi_major_axis": "2.200074997177624",
        "inclination": "5.730520702301414",
        "ascending_node_longitude": "163.7888185148515",
        "orbital_period": "1191.940715601438",
        "perihelion_distance": ".8268173370764549",
        "perihelion_argument": "56.59795625834049",
        "aphelion_distance": "3.573332657278793",
        "perihelion_time": "2459143.898164724118",
        "mean_anomaly": "316.6896753966207",
        "mean_motion": ".3020284442740499",
        "equinox": "J2000",
        "orbit_class": {
            "orbit_class_type": "APO",
            "orbit_class_description": "Near-Earth asteroid orbits which cross the Earth’s orbit similar to that of 1862 Apollo",
            "orbit_class_range": "a (semi-major axis) > 1.0 AU; q (perihelion) < 1.017 AU"
        }
    },
    "is_sentry_object": false
}